NORAD_CAT_ID,OBJECT_NAME,OBJECT_TYPE,EPOCH,MEAN_MOTION,ECCENTRICITY,INCLINATION,RA_OF_ASC_NODE,ARG_OF_PERICENTER,MEAN_ANOMALY,BSTAR,MEAN_MOTION_DOT,MEAN_MOTION_DDOT,TLE_LINE0,TLE_LINE1,TLE_LINE2,SEMIMAJOR_AXIS,PERIOD,APOGEE,PERIGEE,DECAYED
52264.0,STARLINK-3795,PAYLOAD,2022-11-16 18:15:23,15.08848734,0.0002046,53.2178,136.2162,52.7978,307.3201,0.00014154,1.966e-05,0.0,0 STARLINK-3795,1 52264U 22041D   22320.76068611  .00001966  00000-0  14154-3 0  9992,2 52264  53.2178 136.2162 0002046  52.7978 307.3201 15.08848734 31859,6917.854,95.437,541.134,538.303,0.0
52264.0,STARLINK-3795,PAYLOAD,2022-11-17 11:44:38,15.08835869,0.0001963,53.2179,132.945,52.4528,307.6642,-1.2391e-05,-4.85e-06,0.0,0 STARLINK-3795,1 52264U 22041D   22321.48933784 -.00000485  00000-0 -12391-4 0  9993,2 52264  53.2179 132.9450 0001963  52.4528 307.6642 15.08835869 31967,6917.893,95.438,541.116,538.4,0.0
52264.0,STARLINK-3795,PAYLOAD,2022-11-17 14:55:24,15.08838399,0.0001993,53.2176,132.3511,50.9865,309.1304,6.5876e-06,-1.83e-06,0.0,0 STARLINK-3795,1 52264U 22041D   22321.62181530 -.00000183  00000-0  65876-5 0  9994,2 52264  53.2176 132.3511 0001993  50.9865 309.1304 15.08838399 31981,6917.885,95.438,541.129,538.372,0.0
52264.0,STARLINK-3795,PAYLOAD,2022-11-17 18:06:10,15.088425099999998,0.000201,53.2176,131.7565,50.854,309.2631,-8.163e-06,-4.18e-06,0.0,0 STARLINK-3795,1 52264U 22041D   22321.75429302 -.00000418  00000-0 -81630-5 0  9998,2 52264  53.2176 131.7565 0002010  50.8540 309.2631 15.08842510 33215,6917.873000000001,95.437,541.128,538.347,0.0
52264.0,STARLINK-3795,PAYLOAD,2022-11-18 11:35:24,15.08845693,0.0002023,53.2177,128.4854,50.3556,309.7615,1.3919000000000009e-05,-6.7e-07,0.0,0 STARLINK-3795,1 52264U 22041D   22322.48292789 -.00000067  00000-0  13919-4 0  9999,2 52264  53.2177 128.4854 0002023  50.3556 309.7615 15.08845693 32116,6917.863,95.437,541.127,538.3290000000002,0.0
52264.0,STARLINK-3795,PAYLOAD,2022-11-18 17:56:57,15.08848476,0.0001994,53.2171,127.2952,50.1823,309.9344,2.7721e-05,1.53e-06,0.0,0 STARLINK-3795,1 52264U 22041D   22322.74788492  .00000153  00000-0  27721-4 0  9990,2 52264  53.2171 127.2952 0001994  50.1823 309.9344 15.08848476 32154,6917.854,95.437,541.099,538.34,0.0
52264.0,STARLINK-3795,PAYLOAD,2022-11-19 09:50:49,15.08840125,0.0002109,53.2178,124.3223,55.0501,305.0689,5.7654e-05,6.29e-06,0.0,0 STARLINK-3795,1 52264U 22041D   22323.41028954  .00000629  00000-0  57654-4 0  9991,2 52264  53.2178 124.3223 0002109  55.0501 305.0689 15.08840125 33463,6917.88,95.438,541.2040000000002,538.286,0.0
52264.0,STARLINK-3795,PAYLOAD,2022-11-20 11:16:59,15.088400199999995,0.0001839,53.2177,119.563,45.7581,314.3562,-1.0835e-05,-4.61e-06,0.0,0 STARLINK-3795,1 52264U 22041D   22324.47013259 -.00000461  00000-0 -10835-4 0  9996,2 52264  53.2177 119.5630 0001839  45.7581 314.3562 15.08840020 33628,6917.88,95.438,541.018,538.4730000000002,0.0
52264.0,STARLINK-3795,PAYLOAD,2022-11-20 17:38:32,15.08833033,0.0001994,53.2177,118.3736,49.9867,310.13,-6.6146e-05,-1.341e-05,0.0,0 STARLINK-3795,1 52264U 22041D   22324.73509930 -.00001341  00000-0 -66146-4 0  9995,2 52264  53.2177 118.3736 0001994  49.9867 310.1300 15.08833033 33661,6917.901999999999,95.438,541.146,538.387,0.0
52264.0,STARLINK-3795,PAYLOAD,2022-11-21 11:07:47,15.08832691,0.000196,53.2179,115.1029,48.8246,311.2915,7.681100000000002e-07,-2.76e-06,0.0,0 STARLINK-3795,1 52264U 22041D   22325.46374094 -.00000276  00000-0  76811-6 0  9994,2 52264  53.2179 115.1029 0001960  48.8246 311.2915 15.08832691 32566,6917.903,95.438,541.124,538.4119999999998,0.0
52264.0,STARLINK-3795,PAYLOAD,2022-11-21 19:04:42,15.08836756,0.0001968,53.2183,113.6165,51.1586,308.9581,3.239e-05,2.27e-06,0.0,0 STARLINK-3795,1 52264U 22041D   22325.79493846  .00000227  00000-0  32390-4 0  9994,2 52264  53.2183 113.6165 0001968  51.1586 308.9581 15.08836756 32611,6917.89,95.438,541.117,538.394,0.0
52264.0,STARLINK-3795,PAYLOAD,2022-11-22 03:01:38,15.08833316,0.0001972,53.2185,112.13,51.9093,308.2076,0.00012817,1.752e-05,0.0,0 STARLINK-3795,1 52264U 22041D   22326.12613723  .00001752  00000-0  12817-3 0  9995,2 52264  53.2185 112.1300 0001972  51.9093 308.2076 15.08833316 33874,6917.901,95.438,541.13,538.4019999999998,0.0
52264.0,STARLINK-3795,PAYLOAD,2022-11-22 09:23:10,15.08835288,0.0001976,53.2185,110.9405,52.1035,308.0136,0.00013443,1.852e-05,0.0,0 STARLINK-3795,1 52264U 22041D   22326.39109716  .00001852  00000-0  13443-3 0  9993,2 52264  53.2185 110.9405 0001976  52.1035 308.0136 15.08835288 32705,6917.895,95.438,541.127,538.393,0.0
52264.0,STARLINK-3795,PAYLOAD,2022-11-22 17:20:06,15.08840165,0.0001997,53.2186,109.454,53.1185,306.999,0.00016979,2.415e-05,0.0,0 STARLINK-3795,1 52264U 22041D   22326.72229421  .00002415  00000-0  16979-3 0  9999,2 52264  53.2186 109.4540 0001997  53.1185 306.9990 15.08840165 32759,6917.88,95.438,541.126,538.363,0.0
52264.0,STARLINK-3795,PAYLOAD,2022-11-23 09:13:57,15.08840007,0.0002028,53.2189,106.4808,54.9226,305.1956,8.799200000000001e-05,1.112e-05,0.0,0 STARLINK-3795,1 52264U 22041D   22327.38469743  .00001112  00000-0  87992-4 0  9992,2 52264  53.2189 106.4808 0002028  54.9226 305.1956 15.08840007 32856,6917.88,95.438,541.148,538.342,0.0
52264.0,STARLINK-3795,PAYLOAD,2022-11-23 15:35:30,15.08839594,0.0002061,53.2191,105.2914,54.6274,305.491,7.818e-05,9.56e-06,0.0,0 STARLINK-3795,1 52264U 22041D   22327.64965819  .00000956  00000-0  78180-4 0  9990,2 52264  53.2191 105.2914 0002061  54.6274 305.4910 15.08839594 34103,6917.882,95.438,541.172,538.321,0.0
52264.0,STARLINK-3795,PAYLOAD,2022-11-24 09:04:44,15.08847589,0.0002213,53.2191,102.0208,54.3338,305.7859,3.2953e-05,2.36e-06,0.0,0 STARLINK-3795,1 52264U 22041D   22328.37829313  .00000236  00000-0  32953-4 0  9998,2 52264  53.2191 102.0208 0002213  54.3338 305.7859 15.08847589 33007,6917.857,95.437,541.253,538.191,0.0
52264.0,STARLINK-3795,PAYLOAD,2022-11-24 15:26:17,15.08843865,0.0002185,53.2192,100.8312,55.9268,304.1931,4.7666e-06,-2.12e-06,0.0,0 STARLINK-3795,1 52264U 22041D   22328.64325598 -.00000212  00000-0  47666-5 0  9997,2 52264  53.2192 100.8312 0002185  55.9268 304.1931 15.08843865 33048,6917.869000000002,95.437,541.245,538.222,0.0
52264.0,STARLINK-3795,PAYLOAD,2022-11-25 02:33:59,15.08837574,0.0001998,53.2198,98.75,50.4274,309.6894,-1.1869e-05,-4.77e-06,0.0,0 STARLINK-3795,1 52264U 22041D   22329.10693990 -.00000477  00000-0 -11869-4 0  9992,2 52264  53.2198  98.7500 0001998  50.4274 309.6894 15.08837574 34326,6917.888000000001,95.438,541.135,538.371,0.0
52264.0,STARLINK-3795,PAYLOAD,2022-11-25 12:06:18,15.08841691,0.0002131,53.2192,96.9678,37.2474,322.8666,3.0327e-05,1.94e-06,0.0,0 STARLINK-3795,1 52264U 22041D   22329.50437624  .00000194  00000-0  30327-4 0  9990,2 52264  53.2192  96.9678 0002131  37.2474 322.8666 15.08841691 33172,6917.875,95.437,541.214,538.266,0.0
52264.0,STARLINK-3795,PAYLOAD,2022-11-25 15:17:04,15.08837894,0.0001937,53.2186,96.3708,47.782,312.3336,0.00018209,2.611e-05,0.0,0 STARLINK-3795,1 52264U 22041D   22329.63685329  .00002611  00000-0  18209-3 0  9991,2 52264  53.2186  96.3708 0001937  47.7820 312.3336 15.08837894 34402,6917.887,95.438,541.092,538.4119999999998,0.0
52264.0,STARLINK-3795,PAYLOAD,2022-11-26 16:43:13,15.08843354,0.0002005,53.2189,91.6131,48.025,312.0913,0.00013129,1.802e-05,0.0,0 STARLINK-3795,1 52264U 22041D   22330.69668779  .00001802  00000-0  13129-3 0  9996,2 52264  53.2189  91.6131 0002005  48.0250 312.0913 15.08843354 34564,6917.87,95.437,541.122,538.3480000000002,0.0
52264.0,STARLINK-3795,PAYLOAD,2022-11-26 18:18:36,15.08843935,0.0002003,53.2188,91.3156,47.9838,312.1324,0.00013395,1.845e-05,0.0,0 STARLINK-3795,1 52264U 22041D   22330.76292722  .00001845  00000-0  13395-3 0  9997,2 52264  53.2188  91.3156 0002003  47.9838 312.1324 15.08843935 33364,6917.868,95.437,541.119,538.3480000000002,0.0
52264.0,STARLINK-3795,PAYLOAD,2022-11-27 08:37:05,15.08840259,0.0001793,53.2199,88.6381,58.5814,301.5353,-2.1118000000000007e-05,-6.24e-06,0.0,0 STARLINK-3795,1 52264U 22041D   22331.35909314 -.00000624  00000-0 -21118-4 0  9994,2 52264  53.2199  88.6381 0001793  58.5814 301.5353 15.08840259 34666,6917.88,95.438,540.985,538.504,0.0
52264.0,STARLINK-3795,PAYLOAD,2022-11-27 18:09:25,15.08830018,0.0001816,53.2197,86.8547,47.7936,312.3211,-0.00010803,-2.007e-05,0.0,0 STARLINK-3795,1 52264U 22041D   22331.75654300 -.00002007  00000-0 -10803-3 0  9995,2 52264  53.2197  86.8547 0001816  47.7936 312.3211 15.08830018 34721,6917.911,95.438,541.0319999999998,538.52,0.0
52264.0,STARLINK-3795,PAYLOAD,2022-11-28 08:27:52,15.08841031,0.0001849,53.2193,84.1789,42.5237,317.5898,-3.1e-05,-7.81e-06,0.0,0 STARLINK-3795,1 52264U 22041D   22332.35269518 -.00000781  00000-0 -31000-4 0  9995,2 52264  53.2193  84.1789 0001849  42.5237 317.5898 15.08841031 34814,6917.877,95.437,541.021,538.4630000000002,0.0
52264.0,STARLINK-3795,PAYLOAD,2022-11-28 13:14:01,15.08845676,0.0001847,53.2194,83.2868,44.0995,316.0145,1.0822e-05,-1.16e-06,0.0,0 STARLINK-3795,1 52264U 22041D   22332.55141060 -.00000116  00000-0  10822-4 0  9998,2 52264  53.2194  83.2868 0001847  44.0995 316.0145 15.08845676 34840,6917.863,95.437,541.006,538.45,0.0
52264.0,STARLINK-3795,PAYLOAD,2022-11-29 08:18:40,15.08828567,0.0001882,53.2199,79.7192,49.2776,310.8379,0.00010078,1.316e-05,0.0,0 STARLINK-3795,1 52264U 22041D   22333.34629959  .00001316  00000-0  10078-3 0  9998,2 52264  53.2199  79.7192 0001882  49.2776 310.8379 15.08828567 34962,6917.915,95.438,541.082,538.4780000000002,0.0
52264.0,STARLINK-3795,PAYLOAD,2022-11-29 13:04:49,15.08834157,0.0001879,53.2205,78.8274,54.9582,305.1586,0.00014444,2.011e-05,0.0,0 STARLINK-3795,1 52264U 22041D   22333.54501598  .00002011  00000-0  14444-3 0  9992,2 52264  53.2205  78.8274 0001879  54.9582 305.1586 15.08834157 34997,6917.898,95.438,541.063,538.4630000000002,0.0
